EUTELSAT QUANTUM        
1 49056U 21069B   25248.53102096  .00000123  00000+0  00000+0 0  9993
2 49056   0.0483 297.7618 0002133 254.3491  31.6480  1.00273452 15077
EUTELSAT KONNECT VHTS   
1 53765U 22110A   25248.36294958  .00000014  00000+0  00000+0 0  9992
2 53765   0.0516 105.2750 0002821  41.8919 330.9091  1.00268299  3976
EUTELSAT HOTBIRD 13F    
1 54048U 22134A   25248.59550124  .00000084  00000+0  00000+0 0  9995
2 54048   0.0585 293.8409 0001925  71.2278 207.2586  1.00270975 10529
EUTELSAT HOTBIRD 13G    
1 54225U 22146A   25248.35739175  .00000085  00000+0  00000+0 0  9995
2 54225   0.0516 232.9506 0002095 301.4348 311.9828  1.00270798  4615
EUTELSAT 10B            
1 54259U 22157A   25248.59489457  .00000066  00000+0  00000+0 0  9994
2 54259   0.0532 103.4203 0001888 358.1248 107.5893  1.00269675 10163
EUTELSAT 36D            
1 59346U 24059A   25248.52868095  .00000153  00000+0  00000+0 0  9998
2 59346   0.0050 203.1516 0000313 309.4677  58.4473  1.00271401  5298
